NORAD_CAT_ID,OBJECT_NAME,OBJECT_TYPE,EPOCH,MEAN_MOTION,ECCENTRICITY,INCLINATION,RA_OF_ASC_NODE,ARG_OF_PERICENTER,MEAN_ANOMALY,BSTAR,MEAN_MOTION_DOT,MEAN_MOTION_DDOT,TLE_LINE0,TLE_LINE1,TLE_LINE2,SEMIMAJOR_AXIS,PERIOD,APOGEE,PERIGEE,DECAYED
52134.0,STARLINK-3721,PAYLOAD,2024-04-08 09:09:13,15.0884381,0.0001262,53.2178,332.9244,90.3444,269.7693,-1.3583e-05,-5.04e-06,0.0,0 STARLINK-3721,1 52134U 22029AY  24099.38140927 -.00000504  00000-0 -13583-4 0  9993,2 52134  53.2178 332.9244 0001262  90.3444 269.7693 15.08843810115215,6917.869,95.437,540.607,538.861,0.0
52134.0,STARLINK-3721,PAYLOAD,2024-04-08 21:52:18,15.08839392,0.0001158,53.2187,330.5461,82.3729,277.7395,5.0756e-05,5.2e-06,0.0,0 STARLINK-3721,1 52134U 22029AY  24099.91132889  .00000520  00000-0  50756-4 0  9999,2 52134  53.2187 330.5461 0001158  82.3729 277.7395 15.08839392115297,6917.882,95.438,540.548,538.946,0.0
52134.0,STARLINK-3721,PAYLOAD,2024-04-09 01:03:04,15.08847072,0.0001346,53.2181,329.9503,89.5887,270.5259,4.1944e-05,3.8e-06,0.0,0 STARLINK-3721,1 52134U 22029AY  24100.04380405  .00000380  00000-0  41944-4 0  9998,2 52134  53.2181 329.9503 0001346  89.5887 270.5259 15.08847072115310,6917.859,95.437,540.655,538.793,0.0
52134.0,STARLINK-3721,PAYLOAD,2024-04-09 21:43:05,15.08833533,0.000111,53.2177,326.0857,96.6891,263.4227,7.7573e-05,9.47e-06,0.0,0 STARLINK-3721,1 52134U 22029AY  24100.90493045  .00000947  00000-0  77573-4 0  9994,2 52134  53.2177 326.0857 0001110  96.6891 263.4227 15.08833533115445,6917.9,95.438,540.533,538.997,0.0
52134.0,STARLINK-3721,PAYLOAD,2024-04-10 21:33:53,15.08833179,0.0001114,53.2174,321.6259,91.3714,268.7405,-3.5721e-05,-8.56e-06,0.0,0 STARLINK-3721,1 52134U 22029AY  24101.89853726 -.00000856  00000-0 -35721-4 0  9999,2 52134  53.2174 321.6259 0001114  91.3714 268.7405 15.08833179115597,6917.901,95.438,540.537,538.996,0.0
52134.0,STARLINK-3721,PAYLOAD,2024-04-11 00:44:39,15.08870763,0.0001057,53.2175,321.0309,103.1296,256.9814,-0.00050083,-8.256e-05,0.0,0 STARLINK-3721,1 52134U 22029AY  24102.03101226 -.00008256  00000-0 -50083-3 0  9996,2 52134  53.2175 321.0309 0001057 103.1296 256.9814 15.08870763115617,6917.786,95.436,540.383,538.92,0.0
52134.0,STARLINK-3721,PAYLOAD,2024-04-11 07:06:11,15.08852317,0.0001189,53.2184,319.8418,97.7616,262.3511,-0.00015845,-2.81e-05,0.0,0 STARLINK-3721,1 52134U 22029AY  24102.29596936 -.00002810  00000-0 -15845-3 0  9997,2 52134  53.2184 319.8418 0001189  97.7616 262.3511 15.08852317115657,6917.843,95.437,540.53,538.885,0.0
52134.0,STARLINK-3721,PAYLOAD,2024-04-11 21:24:40,15.08835156,0.0001265,53.2186,317.1659,98.5392,261.5743,6.7622e-05,7.88e-06,0.0,0 STARLINK-3721,1 52134U 22029AY  24102.89213448  .00000788  00000-0  67622-4 0  9998,2 52134  53.2186 317.1659 0001265  98.5392 261.5743 15.08835156115742,6917.895,95.438,540.635,538.885,0.0
52134.0,STARLINK-3721,PAYLOAD,2024-04-12 00:35:26,15.08836849,0.0001433,53.2191,316.5705,96.6074,263.5082,9.6559e-05,1.249e-05,0.0,0 STARLINK-3721,1 52134U 22029AY  24103.02461290  .00001249  00000-0  96559-4 0  9998,2 52134  53.2191 316.5705 0001433  96.6074 263.5082 15.08836849115766,6917.89,95.438,540.746,538.764,0.0
52134.0,STARLINK-3721,PAYLOAD,2024-04-13 00:26:14,15.08819679,0.0001275,53.2186,312.1098,95.7747,264.3391,0.00027334,4.063e-05,0.0,0 STARLINK-3721,1 52134U 22029AY  24104.01822031  .00004063  00000-0  27334-3 0  9993,2 52134  53.2186 312.1098 0001275  95.7747 264.3391 15.08819679115919,6917.943,95.439,540.69,538.925,0.0
52134.0,STARLINK-3721,PAYLOAD,2024-04-13 19:30:51,15.08838203,0.0001167,53.2177,308.5397,83.2633,276.8492,-1.985e-05,-6.04e-06,0.0,0 STARLINK-3721,1 52134U 22029AY  24104.81310065 -.00000604  00000-0 -19850-4 0  9994,2 52134  53.2177 308.5397 0001167  83.2633 276.8492 15.08838203116034,6917.886,95.438,540.558,538.944,0.0
52134.0,STARLINK-3721,PAYLOAD,2024-04-13 21:06:14,15.08839231,0.0001187,53.218,308.2424,81.7861,278.3266,-1.214e-05,-4.81e-06,0.0,0 STARLINK-3721,1 52134U 22029AY  24104.87933990 -.00000481  00000-0 -12140-4 0  9996,2 52134  53.2180 308.2424 0001187  81.7861 278.3266 15.08839231116043,6917.883,95.438,540.569,538.927,0.0
52134.0,STARLINK-3721,PAYLOAD,2024-04-14 20:57:01,15.08839948,0.0001475,53.219,303.7811,70.8374,289.2778,8.1749e-05,1.013e-05,0.0,0 STARLINK-3721,1 52134U 22029AY  24105.87293827  .00001013  00000-0  81749-4 0  9996,2 52134  53.2190 303.7811 0001475  70.8374 289.2778 15.08839948116192,6917.881,95.438,540.766,538.725,0.0
52134.0,STARLINK-3721,PAYLOAD,2024-04-15 12:50:53,15.08840131,0.0001361,53.2184,300.8077,78.9263,281.1882,7.0537e-05,8.35e-06,0.0,0 STARLINK-3721,1 52134U 22029AY  24106.53533827  .00000835  00000-0  70537-4 0  9991,2 52134  53.2184 300.8077 0001361  78.9263 281.1882 15.08840131116291,6917.88,95.438,540.687,538.803,0.0
52134.0,STARLINK-3721,PAYLOAD,2024-04-15 19:12:25,15.08842498,0.0001265,53.2181,299.62,86.1378,273.9759,6.3905e-05,7.29e-06,0.0,0 STARLINK-3721,1 52134U 22029AY  24106.80029642  .00000729  00000-0  63905-4 0  9999,2 52134  53.2181 299.6200 0001265  86.1378 273.9759 15.08842498116337,6917.873,95.437,540.613,538.863,0.0
52134.0,STARLINK-3721,PAYLOAD,2024-04-16 06:20:07,15.08841643,0.000156,53.2174,297.537,93.0548,267.0623,4.6602e-05,4.54e-06,0.0,0 STARLINK-3721,1 52134U 22029AY  24107.26397675  .00000454  00000-0  46602-4 0  9994,2 52134  53.2174 297.5370 0001560  93.0548 267.0623 15.08841643116401,6917.875,95.437,540.82,538.661,0.0
52134.0,STARLINK-3721,PAYLOAD,2024-04-16 19:03:12,15.08847687,0.0001457,53.2191,295.1577,84.7733,275.3425,2.669e-05,1.37e-06,0.0,0 STARLINK-3721,1 52134U 22029AY  24107.79389279  .00000137  00000-0  26690-4 0  9996,2 52134  53.2191 295.1577 0001457  84.7733 275.3425 15.08847687116485,6917.857,95.437,540.73,538.714,0.0
52134.0,STARLINK-3721,PAYLOAD,2024-04-17 17:18:37,15.08829444,0.0002407,53.2158,290.9958,25.0114,335.0995,-5.764e-05,-1.205e-05,0.0,0 STARLINK-3721,1 52134U 22029AY  24108.72126405 -.00001205  00000-0 -57640-4 0  9998,2 52134  53.2158 290.9958 0002407  25.0114 335.0995 15.08829444116624,6917.913,95.438,541.443,538.113,0.0
52134.0,STARLINK-3721,PAYLOAD,2024-04-18 12:23:15,15.08819816,0.000132,53.2173,287.4261,60.819,299.2934,-8.057e-05,-1.569e-05,0.0,0 STARLINK-3721,1 52134U 22029AY  24109.51615703 -.00001569  00000-0 -80570-4 0  9991,2 52134  53.2173 287.4261 0001320  60.8190 299.2934 15.08819816116742,6917.942,95.439,540.72,538.894,0.0
52134.0,STARLINK-3721,PAYLOAD,2024-04-18 18:44:47,15.08840455,0.0001246,53.2178,286.2367,90.6359,269.4776,1.6752e-05,-2.1e-07,0.0,0 STARLINK-3721,1 52134U 22029AY  24109.78110138 -.00000021  00000-0  16752-4 0  9994,2 52134  53.2178 286.2367 0001246  90.6359 269.4776 15.08840455116786,6917.879,95.438,540.606,538.882,0.0
52134.0,STARLINK-3721,PAYLOAD,2024-04-19 12:14:01,15.08822467,0.0001444,53.2178,282.9639,86.5003,273.6154,0.00030181,4.516e-05,0.0,0 STARLINK-3721,1 52134U 22029AY  24110.50974203  .00004516  00000-0  30181-3 0  9990,2 52134  53.2178 282.9639 0001444  86.5003 273.6154 15.08822467116893,6917.934,95.439,540.798,538.8,0.0
52134.0,STARLINK-3721,PAYLOAD,2024-04-19 17:00:11,15.08832812,0.0001412,53.2181,282.0731,97.8357,262.2796,0.00015305,2.148e-05,0.0,0 STARLINK-3721,1 52134U 22029AY  24110.70846287  .00002148  00000-0  15305-3 0  9992,2 52134  53.2181 282.0731 0001412  97.8357 262.2796 15.08832812116928,6917.902,95.438,540.744,538.791,0.0
52134.0,STARLINK-3721,PAYLOAD,2024-04-20 10:29:25,15.08843915,0.0001191,53.2182,278.801,103.3496,256.7629,9.8922e-05,1.287e-05,0.0,0 STARLINK-3721,1 52134U 22029AY  24111.43710152  .00001287  00000-0  98922-4 0  9994,2 52134  53.2182 278.8010 0001191 103.3496 256.7629 15.08843915117035,6917.868,95.437,540.557,538.91,0.0
52134.0,STARLINK-3721,PAYLOAD,2024-04-20 18:26:21,15.08836539,0.0001159,53.2179,277.3098,98.7974,261.3149,2.4725e-05,1.06e-06,0.0,0 STARLINK-3721,1 52134U 22029AY  24111.76830913  .00000106  00000-0  24725-4 0  9997,2 52134  53.2179 277.3098 0001159  98.7974 261.3149 15.08836539117081,6917.891,95.438,540.558,538.954,0.0
52134.0,STARLINK-3721,PAYLOAD,2024-04-21 19:52:32,15.0884327,0.0001377,53.2191,272.5597,90.5276,269.5874,8.3647e-05,1.044e-05,0.0,0 STARLINK-3721,1 52134U 22029AY  24112.82814823  .00001044  00000-0  83647-4 0  9997,2 52134  53.2191 272.5597 0001377  90.5276 269.5874 15.08843270117246,6917.87,95.437,540.688,538.783,0.0
52134.0,STARLINK-3721,PAYLOAD,2024-04-22 10:11:00,15.0882576,0.0001605,53.2191,269.8842,77.8056,282.3115,0.00042259,6.441e-05,0.0,0 STARLINK-3721,1 52134U 22029AY  24113.42430810  .00006441  00000-0  42259-3 0  9993,2 52134  53.2191 269.8842 0001605  77.8056 282.3115 15.08825760117331,6917.924,95.438,540.899,538.679,0.0
52134.0,STARLINK-3721,PAYLOAD,2024-04-22 16:32:33,15.08835585,0.0001345,53.2192,268.6905,90.4262,269.6885,0.000133,1.829e-05,0.0,0 STARLINK-3721,1 52134U 22029AY  24113.68927105  .00001829  00000-0  13300-3 0  9999,2 52134  53.2192 268.6905 0001345  90.4262 269.6885 15.08835585117372,6917.894,95.438,540.689,538.828,0.0
52134.0,STARLINK-3721,PAYLOAD,2024-04-23 10:01:47,15.08840107,0.0001325,53.2193,265.421,91.0725,269.0419,-1.3041e-05,-4.95e-06,0.0,0 STARLINK-3721,1 52134U 22029AY  24114.41791550 -.00000495  00000-0 -13041-4 0  9997,2 52134  53.2193 265.4210 0001325  91.0725 269.0419 15.08840107117481,6917.88,95.438,540.662,538.828,0.0
52134.0,STARLINK-3721,PAYLOAD,2024-04-23 16:23:20,15.08841404,0.0001329,53.2192,264.2322,89.1814,270.933,-5.5187e-06,-3.76e-06,0.0,0 STARLINK-3721,1 52134U 22029AY  24114.68287378 -.00000376  00000-0 -55187-5 0  9990,2 52134  53.2192 264.2322 0001329  89.1814 270.9330 15.08841404117521,6917.876,95.437,540.66,538.822,0.0
52134.0,STARLINK-3721,PAYLOAD,2024-04-24 13:03:22,15.08824966,0.0001298,53.2185,260.3673,89.2392,270.8749,-4.9913e-06,-3.67e-06,0.0,0 STARLINK-3721,1 52134U 22029AY  24115.54400723 -.00000367  00000-0 -49913-5 0  9997,2 52134  53.2185 260.3673 0001298  89.2392 270.8749 15.08824966117657,6917.926,95.439,540.689,538.893,0.0
